start=new Date('2022-11-06T00:00:00.000Z').valueOf();
sats=[{"LAUNCH_DATE":"2020-10-06","FILE":"3645109","COUNTRY_CODE":"US","REF_FRAME":"TEME","PERIAPSIS":"545.938","OBJECT_TYPE":"PAYLOAD","OBJECT_ID":"2020-070BE","MEAN_MOTION":"15.06397945","GP_ID":"216959888","TIME_SYSTEM":"UTC","RCS_SIZE":"LARGE","MEAN_ANOMALY":"302.7310","MEAN_ELEMENT_THEORY":"SGP4","RA_OF_ASC_NODE":"235.5166","SEMIMAJOR_AXIS":"6925.355","CENTER_NAME":"EARTH","ARG_OF_PERICENTER":"57.3858","OBJECT_NAME":"STARLINK-1732","BSTAR":"0.00001148700000","TLE_LINE2":"2 46584  53.0554 235.5166 0001851  57.3858 302.7310 15.06397945115833","ECCENTRICITY":"0.00018510","MEAN_MOTION_DDOT":"0.0000000000000","REV_AT_EPOCH":"11583","ELEMENT_SET_NO":"999","EPHEMERIS_TYPE":"0","MEAN_MOTION_DOT":"-0.00000111","PERIOD":"95.592","EPOCH":"2022-11-05T05:21:21.330720","DECAY_DATE":null,"NORAD_CAT_ID":"46584","INCLINATION":"53.0554","SITE":"AFETR","TLE_LINE1":"1 46584U 20070BE  22309.22316355 -.00000111  00000-0  11487-4 0  9998","APOAPSIS":"548.502","CLASSIFICATION_TYPE":"U"},{"TLE_LINE1":"1 46585U 20070BF  22309.50606546 -.00000821  00000-0 -36273-4 0  9993","APOAPSIS":"548.378","SITE":"AFETR","CLASSIFICATION_TYPE":"U","ELEMENT_SET_NO":"999","EPHEMERIS_TYPE":"0","MEAN_MOTION_DOT":"-0.00000821","PERIOD":"95.593","EPOCH":"2022-11-05T12:08:44.055744","DECAY_DATE":null,"NORAD_CAT_ID":"46585","INCLINATION":"53.0553","GP_ID":"216995038","MEAN_MOTION":"15.06381258","RCS_SIZE":"LARGE","TIME_SYSTEM":"UTC","MEAN_ANOMALY":"306.5483","RA_OF_ASC_NODE":"234.2362","MEAN_ELEMENT_THEORY":"SGP4","SEMIMAJOR_AXIS":"6925.406","CENTER_NAME":"EARTH","ARG_OF_PERICENTER":"53.5653","OBJECT_NAME":"STARLINK-1736","BSTAR":"-0.00003627300000","TLE_LINE2":"2 46585  53.0553 234.2362 0001599  53.5653 306.5483 15.06381258115571","ECCENTRICITY":"0.00015990","MEAN_MOTION_DDOT":"0.0000000000000","REV_AT_EPOCH":"11557","LAUNCH_DATE":"2020-10-06","FILE":"3646451","COUNTRY_CODE":"US","REF_FRAME":"TEME","PERIAPSIS":"546.164","OBJECT_TYPE":"PAYLOAD","OBJECT_ID":"2020-070BF"},{"FILE":"3645109","LAUNCH_DATE":"2020-10-06","PERIAPSIS":"545.996","COUNTRY_CODE":"US","REF_FRAME":"TEME","OBJECT_TYPE":"PAYLOAD","OBJECT_ID":"2020-070BG","RCS_SIZE":"LARGE","TIME_SYSTEM":"UTC","GP_ID":"216958889","MEAN_MOTION":"15.06382769","SEMIMAJOR_AXIS":"6925.401","CENTER_NAME":"EARTH","MEAN_ANOMALY":"310.3423","RA_OF_ASC_NODE":"234.2755","MEAN_ELEMENT_THEORY":"SGP4","OBJECT_NAME":"STARLINK-1737","BSTAR":"-0.00012348000000","TLE_LINE2":"2 46586  53.0544 234.2755 0001834  49.7726 310.3423 15.06382769115876","ARG_OF_PERICENTER":"49.7726","MEAN_MOTION_DDOT":"0.0000000000000","REV_AT_EPOCH":"11587","ECCENTRICITY":"0.00018340","MEAN_MOTION_DOT":"-0.00002120","ELEMENT_SET_NO":"999","EPHEMERIS_TYPE":"0","PERIOD":"95.593","DECAY_DATE":null,"NORAD_CAT_ID":"46586","EPOCH":"2022-11-05T11:54:09.665280","INCLINATION":"53.0544","TLE_LINE1":"1 46586U 20070BG  22309.49594520 -.00002120  00000-0 -12348-3 0  9990","APOAPSIS":"548.536","SITE":"AFETR","CLASSIFICATION_TYPE":"U"},{"REF_FRAME":"TEME","COUNTRY_CODE":"US","PERIAPSIS":"545.868","LAUNCH_DATE":"2020-10-06","FILE":"3646512","OBJECT_ID":"2020-070BJ","OBJECT_TYPE":"PAYLOAD","RA_OF_ASC_NODE":"233.7796","MEAN_ELEMENT_THEORY":"SGP4","MEAN_ANOMALY":"321.1541","CENTER_NAME":"EARTH","SEMIMAJOR_AXIS":"6925.399","MEAN_MOTION":"15.06383441","GP_ID":"217016379","RCS_SIZE":"LARGE","TIME_SYSTEM":"UTC","ECCENTRICITY":"0.00020160","REV_AT_EPOCH":"11589","MEAN_MOTION_DDOT":"0.0000000000000","ARG_OF_PERICENTER":"38.9593","TLE_LINE2":"2 46588  53.0541 233.7796 0002016  38.9593 321.1541 15.06383441115890","BSTAR":"-0.00035201000000","OBJECT_NAME":"STARLINK-1746","PERIOD":"95.593","ELEMENT_SET_NO":"999","EPHEMERIS_TYPE":"0","MEAN_MOTION_DOT":"-0.00005519","INCLINATION":"53.0541","EPOCH":"2022-11-05T14:38:40.813440","NORAD_CAT_ID":"46588","DECAY_DATE":null,"TLE_LINE1":"1 46588U 20070BJ  22309.61019460 -.00005519  00000-0 -35201-3 0  9999","SITE":"AFETR","APOAPSIS":"548.660","CLASSIFICATION_TYPE":"U"},{"OBJECT_ID":"2020-070BK","OBJECT_TYPE":"PAYLOAD","PERIAPSIS":"545.942","COUNTRY_CODE":"US","REF_FRAME":"TEME","FILE":"3646512","LAUNCH_DATE":"2020-10-06","MEAN_MOTION_DDOT":"0.0000000000000","REV_AT_EPOCH":"11591","ECCENTRICITY":"0.00019160","OBJECT_NAME":"STARLINK-1749","BSTAR":"-0.00029837000000","TLE_LINE2":"2 46589  53.0545 232.9162 0001916  43.6976 316.4164 15.06382041115915","ARG_OF_PERICENTER":"43.6976","SEMIMAJOR_AXIS":"6925.404","CENTER_NAME":"EARTH","MEAN_ANOMALY":"316.4164","RA_OF_ASC_NODE":"232.9162","MEAN_ELEMENT_THEORY":"SGP4","RCS_SIZE":"LARGE","TIME_SYSTEM":"UTC","GP_ID":"217015129","MEAN_MOTION":"15.06382041","INCLINATION":"53.0545","DECAY_DATE":null,"NORAD_CAT_ID":"46589","EPOCH":"2022-11-05T19:14:42.309312","PERIOD":"95.593","MEAN_MOTION_DOT":"-0.00004721","EPHEMERIS_TYPE":"0","ELEMENT_SET_NO":"999","CLASSIFICATION_TYPE":"U","SITE":"AFETR","TLE_LINE1":"1 46589U 20070BK  22309.80187858 -.00004721  00000-0 -29837-3 0  9990","APOAPSIS":"548.596"},{"APOAPSIS":"548.403","TLE_LINE1":"1 46591U 20070BM  22309.12733064 -.00000740  00000-0 -30766-4 0  9995","SITE":"AFETR","CLASSIFICATION_TYPE":"U","EPHEMERIS_TYPE":"0","ELEMENT_SET_NO":"999","MEAN_MOTION_DOT":"-0.00000740","PERIOD":"95.592","EPOCH":"2022-11-05T03:03:21.367296","NORAD_CAT_ID":"46591","DECAY_DATE":null,"INCLINATION":"53.0544","GP_ID":"216981696","MEAN_MOTION":"15.06401673","RCS_SIZE":"LARGE","TIME_SYSTEM":"UTC","RA_OF_ASC_NODE":"235.9404","MEAN_ELEMENT_THEORY":"SGP4","MEAN_ANOMALY":"304.0885","CENTER_NAME":"EARTH","SEMIMAJOR_AXIS":"6925.343","ARG_OF_PERICENTER":"56.0268","BSTAR":"-0.00003076600000","TLE_LINE2":"2 46591  53.0544 235.9404 0001725  56.0268 304.0885 15.06401673115825","OBJECT_NAME":"STARLINK-1755","ECCENTRICITY":"0.00017250","REV_AT_EPOCH":"11582","MEAN_MOTION_DDOT":"0.0000000000000","LAUNCH_DATE":"2020-10-06","FILE":"3645858","REF_FRAME":"TEME","COUNTRY_CODE":"US","PERIAPSIS":"546.014","OBJECT_TYPE":"PAYLOAD","OBJECT_ID":"2020-070BM"},{"CLASSIFICATION_TYPE":"U","APOAPSIS":"548.948","TLE_LINE1":"1 46671U 20073B   22309.75307224  .00000248  00000-0  35592-4 0  9994","SITE":"AFETR","DECAY_DATE":null,"NORAD_CAT_ID":"46671","EPOCH":"2022-11-05T18:04:25.441536","INCLINATION":"53.0546","MEAN_MOTION_DOT":"0.00000248","EPHEMERIS_TYPE":"0","ELEMENT_SET_NO":"999","PERIOD":"95.593","OBJECT_NAME":"STARLINK-1715","BSTAR":"0.00003559200000","TLE_LINE2":"2 46671  53.0546 323.3798 0002435  39.8582 320.2586 15.06384262113180","ARG_OF_PERICENTER":"39.8582","MEAN_MOTION_DDOT":"0.0000000000000","REV_AT_EPOCH":"11318","ECCENTRICITY":"0.00024350","RCS_SIZE":"LARGE","TIME_SYSTEM":"UTC","MEAN_MOTION":"15.06384262","GP_ID":"217014887","SEMIMAJOR_AXIS":"6925.397","CENTER_NAME":"EARTH","MEAN_ANOMALY":"320.2586","MEAN_ELEMENT_THEORY":"SGP4","RA_OF_ASC_NODE":"323.3798","OBJECT_TYPE":"PAYLOAD","OBJECT_ID":"2020-073B","FILE":"3646512","LAUNCH_DATE":"2020-10-18","PERIAPSIS":"545.575","COUNTRY_CODE":"US","REF_FRAME":"TEME"},{"FILE":"3645504","LAUNCH_DATE":"2020-10-18","PERIAPSIS":"545.699","COUNTRY_CODE":"US","REF_FRAME":"TEME","OBJECT_TYPE":"PAYLOAD","OBJECT_ID":"2020-073C","RCS_SIZE":"LARGE","TIME_SYSTEM":"UTC","GP_ID":"216974496","MEAN_MOTION":"15.06391583","SEMIMAJOR_AXIS":"6925.374","CENTER_NAME":"EARTH","MEAN_ANOMALY":"315.1332","RA_OF_ASC_NODE":"319.8527","MEAN_ELEMENT_THEORY":"SGP4","OBJECT_NAME":"STARLINK-1716","BSTAR":"-0.00003464600000","TLE_LINE2":"2 46672  53.0554 319.8527 0002224  44.9837 315.1332 15.06391583113687","ARG_OF_PERICENTER":"44.9837","MEAN_MOTION_DDOT":"0.0000000000000","REV_AT_EPOCH":"11368","ECCENTRICITY":"0.00022240","MEAN_MOTION_DOT":"-0.00000798","EPHEMERIS_TYPE":"0","ELEMENT_SET_NO":"999","PERIOD":"95.593","DECAY_DATE":null,"NORAD_CAT_ID":"46672","EPOCH":"2022-11-05T08:55:40.233216","INCLINATION":"53.0554","APOAPSIS":"548.780","TLE_LINE1":"1 46672U 20073C   22309.37199344 -.00000798  00000-0 -34646-4 0  9996","SITE":"AFETR","CLASSIFICATION_TYPE":"U"},{"INCLINATION":"53.0552","DECAY_DATE":null,"NORAD_CAT_ID":"46673","EPOCH":"2022-11-05T10:05:21.495552","PERIOD":"95.592","MEAN_MOTION_DOT":"-0.00000595","EPHEMERIS_TYPE":"0","ELEMENT_SET_NO":"999","CLASSIFICATION_TYPE":"U","TLE_LINE1":"1 46673U 20073D   22309.42038768 -.00000595  00000-0 -21049-4 0  9993","SITE":"AFETR","APOAPSIS":"548.422","OBJECT_ID":"2020-073D","OBJECT_TYPE":"PAYLOAD","PERIAPSIS":"546.033","COUNTRY_CODE":"US","REF_FRAME":"TEME","FILE":"3645504","LAUNCH_DATE":"2020-10-18","MEAN_MOTION_DDOT":"0.0000000000000","REV_AT_EPOCH":"11347","ECCENTRICITY":"0.00017250","OBJECT_NAME":"STARLINK-1717","TLE_LINE2":"2 46673  53.0552 334.7362 0001725  45.8047 314.3083 15.06395386113473","BSTAR":"-0.00002104900000","ARG_OF_PERICENTER":"45.8047","SEMIMAJOR_AXIS":"6925.363","CENTER_NAME":"EARTH","MEAN_ANOMALY":"314.3083","RA_OF_ASC_NODE":"334.7362","MEAN_ELEMENT_THEORY":"SGP4","RCS_SIZE":"LARGE","TIME_SYSTEM":"UTC","MEAN_MOTION":"15.06395386","GP_ID":"216973996"},{"SITE":"AFETR","TLE_LINE1":"1 46674U 20073E   22309.72953666 -.00005375  00000-0 -34235-3 0  9991","APOAPSIS":"548.661","CLASSIFICATION_TYPE":"U","PERIOD":"95.593","EPHEMERIS_TYPE":"0","ELEMENT_SET_NO":"999","MEAN_MOTION_DOT":"-0.00005375","INCLINATION":"53.0539","EPOCH":"2022-11-05T17:30:31.967424","DECAY_DATE":null,"NORAD_CAT_ID":"46674","MEAN_ANOMALY":"316.4074","RA_OF_ASC_NODE":"318.2302","MEAN_ELEMENT_THEORY":"SGP4","SEMIMAJOR_AXIS":"6925.399","CENTER_NAME":"EARTH","GP_ID":"217015137","MEAN_MOTION":"15.06383682","TIME_SYSTEM":"UTC","RCS_SIZE":"LARGE","ECCENTRICITY":"0.00020180","MEAN_MOTION_DDOT":"0.0000000000000","REV_AT_EPOCH":"11325","ARG_OF_PERICENTER":"43.7074","OBJECT_NAME":"STARLINK-1718","BSTAR":"-0.00034235000000","TLE_LINE2":"2 46674  53.0539 318.2302 0002018  43.7074 316.4074 15.06383682113258","COUNTRY_CODE":"US","REF_FRAME":"TEME","PERIAPSIS":"545.866","LAUNCH_DATE":"2020-10-18","FILE":"3646512","OBJECT_ID":"2020-073E","OBJECT_TYPE":"PAYLOAD"}];
